2024-135A               
1 60327U 24135A   24231.18799703 -.00000176  00000+0  00000+0 0  9992
2 60327   0.0508 260.6713 0000686 217.5527  69.5900  1.00270010   805
2024-135B               
1 60328U 24135B   24229.79381828  .00205073  12547-5  31472-2 0  9999
2 60328  26.7416 140.4663 7209916 188.6016 144.0515  2.42308400   367
STARLINK-31745          
1 60329U 24136A   24231.25001157 -.00583141  00000+0 -29880-2 0  9991
2 60329  53.1511 202.1008 0000642  79.8410 111.8079 15.82040626  3769
STARLINK-32153          
1 60330U 24136B   24231.50002315 -.00620163  00000+0 -32293-2 0  9996
2 60330  53.1509 200.8380 0000530  93.2091  86.4868 15.81789553  3656
STARLINK-32203          
1 60331U 24136C   24231.50002315 -.00622309  00000+0 -32360-2 0  9996
2 60331  53.1509 200.8311 0000541  88.4978  94.5462 15.81824322  3646
STARLINK-32171          
1 60332U 24136D   24231.50002315 -.00628504  00000+0 -32631-2 0  9991
2 60332  53.1508 200.8151 0000532  87.7506 102.9347 15.81873132  3602
STARLINK-32133          
1 60333U 24136E   24231.50002315 -.00625129  00000+0 -32475-2 0  9998
2 60333  53.1510 200.8236 0000549  84.1118 102.6058 15.81852022  3597
STARLINK-32132          
1 60334U 24136F   24231.50002315 -.00631190  00000+0 -32732-2 0  9990
2 60334  53.1508 200.8078 0000528  88.3745 105.8061 15.81904846  3645
STARLINK-32168          
1 60335U 24136G   24231.50002315 -.00631023  00000+0 -32650-2 0  9995
2 60335  53.1507 200.8021 0000529  97.5032  99.4278 15.81952244  3750
STARLINK-32079          
1 60336U 24136H   24231.50002315 -.00633226  00000+0 -32731-2 0  9993
2 60336  53.1506 200.7943 0000551 105.8942  94.7374 15.81979014  3805
STARLINK-32187          
1 60337U 24136J   24231.50002315 -.00632868  00000+0 -32645-2 0  9999
2 60337  53.1507 200.7886 0000586 107.5228  96.0415 15.82021919  3700
STARLINK-32078          
1 60338U 24136K   24231.50002315 -.00635663  00000+0 -32757-2 0  9990
2 60338  53.1506 200.7807 0000569 106.2592 100.9670 15.82049834  3753
STARLINK-32175          
1 60339U 24136L   24231.50002315 -.00638809  00000+0 -32884-2 0  9997
2 60339  53.1503 200.7734 0000529 102.1097 108.6663 15.82080537  3753
STARLINK-32176          
1 60340U 24136M   24231.50002315 -.00643090  00000+0 -33095-2 0  9992
2 60340  53.1503 200.7645 0000517 102.8762 112.0861 15.82097213  3757
STARLINK-32185          
1 60341U 24136N   24231.50002315 -.00645045  00000+0 -33149-2 0  9995
2 60341  53.1502 200.7575 0000511  98.6864 119.6162 15.82131978  3752
STARLINK-32221          
1 60342U 24136P   24231.50002315 -.00648313  00000+0 -33302-2 0  9998
2 60342  53.1502 200.7493 0000523 104.1481 118.2784 15.82149528  3703
STARLINK-32083          
1 60343U 24136Q   24231.50002315 -.00850644  00000+0 -42344-2 0  9997
2 60343  53.1495 200.4695 0000457 102.5874 254.5285 15.83311145  3549
STARLINK-32077          
1 60344U 24136R   24231.50002315 -.00654493  00000+0 -33564-2 0  9996
2 60344  53.1502 200.7336 0000516  97.3184 132.6657 15.82199894  3751
STARLINK-32075          
1 60345U 24136S   24231.50002315 -.00661611  00000+0 -33885-2 0  9993
2 60345  53.1500 200.7172 0000491  89.9141 147.8644 15.82245189  3753
STARLINK-32082          
1 60346U 24136T   24231.50002315 -.00656925  00000+0 -33668-2 0  9995
2 60346  53.1502 200.7251 0000552 108.6022 125.4187 15.82218743  3704
STARLINK-32084          
1 60347U 24136U   24231.50002315 -.00663992  00000+0 -33972-2 0  9996
2 60347  53.1501 200.7098 0000493  91.9076 149.5260 15.82272894  3751
STARLINK-32081          
1 60348U 24136V   24231.50002315 -.00666047  00000+0 -34059-2 0  9998
2 60348  53.1501 200.7013 0000543 109.0993 136.4674 15.82288967  3790
STARLINK-32181          
1 60349U 24136W   24231.50002315 -.00673028  00000+0 -34357-2 0  9997
2 60349  53.1499 200.6858 0000478  88.2697 164.7070 15.82342944  3542
STARLINK-32076          
1 60350U 24136X   24231.50002315 -.00669519  00000+0 -34201-2 0  9997
2 60350  53.1500 200.6934 0000470  94.0590 155.0426 15.82320010  3752
STARLINK-32097          
1 60351U 24136Y   24231.50002315 -.00671834  00000+0 -34228-2 0  9990
2 60351  53.1499 200.6790 0000584 114.0014 142.1037 15.82381487  3806
STRIX-4                 
1 60352U 24137A   24230.96169764  .00024882  00000+0  16268-2 0  9990
2 60352  43.0196  56.5940 0004469 342.5518  17.5172 15.07342891  2309
ELECTRON KICK STAGE R/B 
1 60353U 24137B   24231.55435644  .00061319  00000+0  20800-2 0  9993
2 60353  43.0189  50.7348 0070056 124.1951 236.5567 15.27342596  2417
STARLINK-32285          
1 60355U 24138A   24231.25001157 -.00681169  00000+0 -28911-2 0  9995
2 60355  53.1607  83.1468 0000369  55.0662 259.2394 15.86201335  3411
STARLINK-32278          
1 60356U 24138B   24231.25001157 -.00749106  00000+0 -29753-2 0  9997
2 60356  53.1591  82.9350 0000402  51.2659   4.4493 15.87698253  3413
STARLINK-32286          
1 60357U 24138C   24231.25001157 -.00686800  00000+0 -29127-2 0  9994
2 60357  53.1605  83.1358 0000335  58.3434 260.9889 15.86230719  3411
STARLINK-32287          
1 60358U 24138D   24231.50002315 -.00611902  00000+0 -26227-2 0  9999
2 60358  53.1602  81.8793 0000348  80.6442 223.7037 15.85839387  3448
STARLINK-32290          
1 60359U 24138E   24231.25001157 -.00692351  00000+0 -29366-2 0  9999
2 60359  53.1604  83.1288 0000331  58.5365 264.2309 15.86241191  3358
STARLINK-32275          
1 60360U 24138F   24231.25001157 -.00694828  00000+0 -29454-2 0  9990
2 60360  53.1603  83.1240 0000460  49.0596 275.8519 15.86257936  3413
STARLINK-32227          
1 60361U 24138G   24231.25001157 -.00764764  00000+0 -30418-2 0  9990
2 60361  53.1587  82.9163 0000385  53.0087  11.3157 15.87705748  3424
STARLINK-32256          
1 60362U 24138H   24231.25001157 -.00750863  00000+0 -29806-2 0  9995
2 60362  53.1590  82.9305 0000412  51.2455   6.4671 15.87713455  3416
STARLINK-32267          
1 60363U 24138J   24231.25001157 -.00696994  00000+0 -29531-2 0  9995
2 60363  53.1602  83.1196 0000340  55.5223 271.5720 15.86273974  3418
STARLINK-32270          
1 60364U 24138K   24231.25001157 -.00701792  00000+0 -29736-2 0  9996
2 60364  53.1602  83.1127 0000327  57.0146 273.3831 15.86284036  3299
STARLINK-32188          
1 60365U 24138L   24231.25001157 -.00706941  00000+0 -29957-2 0  9993
2 60365  53.1601  83.1057 0000319  59.3560 274.3175 15.86294156  3417
STARLINK-32230          
1 60366U 24138M   24231.25001157 -.00709765  00000+0 -30065-2 0  9993
2 60366  53.1598  83.1004 0000314  58.7704 277.3176 15.86308659  3411
STARLINK-32243          
1 60367U 24138N   24231.25001157 -.00714123  00000+0 -30248-2 0  9991
2 60367  53.1597  83.0942 0000308  59.0345 280.0212 15.86319922  3416
STARLINK-32271          
1 60368U 24138P   24231.25001157 -.00718720  00000+0 -30440-2 0  9993
2 60368  53.1596  83.0875 0000453  48.4245 293.5730 15.86331520  3415
STARLINK-32266          
1 60369U 24138Q   24231.25001157 -.00722629  00000+0 -30603-2 0  9998
2 60369  53.1595  83.0817 0000373  52.3711 292.4750 15.86342828  3417
STARLINK-32220          
1 60370U 24138R   24231.25001157 -.00729116  00000+0 -30892-2 0  9998
2 60370  53.1594  83.0741 0000362  53.8047 294.7524 15.86348617  3416
STARLINK-32263          
1 60371U 24138S   24231.25001157 -.00733927  00000+0 -31099-2 0  9994
2 60371  53.1591  83.0676 0000312  57.2789 294.3362 15.86358073  3207
STARLINK-32268          
1 60372U 24138T   24231.25001157 -.00742778  00000+0 -31475-2 0  9997
2 60372  53.1592  83.0555 0000369  52.0067 305.5168 15.86377709  3418
STARLINK-32223          
1 60373U 24138U   24231.25001157 -.00738626  00000+0 -31301-2 0  9993
2 60373  53.1593  83.0613 0000351  53.1104 301.6146 15.86366885  3359
STARLINK-32180          
1 60374U 24138V   24231.25001157 -.00749733  00000+0 -31790-2 0  9997
2 60374  53.1593  83.0476 0000394  50.9528 310.3914 15.86380783  3419
STARLINK-32281          
1 60375U 24138W   24231.25001157 -.00761144  00000+0 -32264-2 0  9995
2 60375  53.1589  83.0309 0000302  55.6720 313.5973 15.86414199  3133
STARLINK-32277          
1 60376U 24138X   24231.25001157 -.00757934  00000+0 -32135-2 0  9995
2 60376  53.1591  83.0360 0000344  53.8022 313.0050 15.86401963  3412
STARLINK-32269          
1 60377U 24138Y   24231.25001157 -.00754207  00000+0 -31981-2 0  9994
2 60377  53.1593  83.0421 0000329  56.2599 307.9043 15.86390841  3418
CYGNUS NG-21            
1 60378U 24139A   24231.03485529  .00019047  00000+0  33708-3 0  9995
2 60378  51.6400   8.9322 0005183 217.5180 142.5447 15.50312431    54
QIANFAN-1               
1 60379U 24140A   24231.45997980  .00001941  00000+0  79611-3 0  9990
2 60379  88.9968 349.7827 0015629 174.3237 185.8137 14.26688209  1724
QIANFAN-2               
1 60380U 24140B   24231.46054177  .00001994  00000+0  81903-3 0  9990
2 60380  88.9968 349.7828 0015948 173.7535 186.3860 14.26623316  1744
QIANFAN-3               
1 60381U 24140C   24231.53047606  .00001989  00000+0  81680-3 0  9994
2 60381  88.9968 349.7748 0015857 173.5146 186.6256 14.26647593  1757
QIANFAN-4               
1 60382U 24140D   24231.53043327  .00002038  00000+0  83671-3 0  9999
2 60382  88.9968 349.7747 0015815 173.6393 186.5005 14.26652357  1751
QIANFAN-5               
1 60383U 24140E   24231.46012862  .00001957  00000+0  80326-3 0  9995
2 60383  88.9968 349.7828 0015710 174.0082 186.1303 14.26671331  1745
QIANFAN-6               
1 60384U 24140F   24231.46009918  .00001932  00000+0  79255-3 0  9996
2 60384  88.9968 349.7828 0015694 174.0888 186.0494 14.26674182  1748
QIANFAN-7               
1 60385U 24140G   24231.53021331  .00002351  00000+0  96596-3 0  9991
2 60385  88.9968 349.7748 0015802 173.9631 186.1756 14.26681816  1750
